ELYSIUM STAR 2 & LFF    
1 43760U 18099C   24297.59049512  .00206491  00000+0  32149-2 0  9998
2 43760  97.4937   7.6611 0004722 194.2415 165.8706 15.53148394322949
